start=new Date('2022-06-26T00:00:00.000Z').valueOf();
sats=[{"CLASSIFICATION_TYPE":"U","OBJECT_NAME":"STARLINK-1581","ECCENTRICITY":"0.00012690","GP_ID":"206852269","MEAN_MOTION_DDOT":"0.0000000000000","APOAPSIS":"548.129","MEAN_ANOMALY":"299.5441","INCLINATION":"53.0541","SITE":"AFETR","MEAN_MOTION_DOT":"0.00000408","OBJECT_ID":"2020-055R","SEMIMAJOR_AXIS":"6925.385","COUNTRY_CODE":"US","TLE_LINE1":"1 46042U 20055R   22176.88598235  .00000408  00000-0  46309-4 0  9992","MEAN_ELEMENT_THEORY":"SGP4","REF_FRAME":"TEME","ELEMENT_SET_NO":"999","MEAN_MOTION":"15.06387948","CENTER_NAME":"EARTH","OBJECT_TYPE":"PAYLOAD","TLE_LINE2":"2 46042  53.0541  79.5843 0001269  60.5675 299.5441 15.06387948104953","FILE":"3502557","DECAY_DATE":null,"PERIOD":"95.593","LAUNCH_DATE":"2020-08-07","TIME_SYSTEM":"UTC","RCS_SIZE":"LARGE","REV_AT_EPOCH":"10495","PERIAPSIS":"546.372","ARG_OF_PERICENTER":"60.5675","EPOCH":"2022-06-25T21:15:48.875040","NORAD_CAT_ID":"46042","BSTAR":"0.00004630900000","EPHEMERIS_TYPE":"0","RA_OF_ASC_NODE":"79.5843"},{"MEAN_MOTION_DOT":"0.00000231","INCLINATION":"53.0541","SITE":"AFETR","REF_FRAME":"TEME","OBJECT_ID":"2020-055S","TLE_LINE1":"1 46043U 20055S   22176.87860257  .00000231  00000-0  34377-4 0  9994","MEAN_ELEMENT_THEORY":"SGP4","SEMIMAJOR_AXIS":"6925.354","COUNTRY_CODE":"US","OBJECT_NAME":"STARLINK-1582","CLASSIFICATION_TYPE":"U","APOAPSIS":"548.219","MEAN_ANOMALY":"295.4839","GP_ID":"206853520","ECCENTRICITY":"0.00014440","MEAN_MOTION_DDOT":"0.0000000000000","PERIOD":"95.592","LAUNCH_DATE":"2020-08-07","TIME_SYSTEM":"UTC","RCS_SIZE":"LARGE","BSTAR":"0.00003437700000","EPOCH":"2022-06-25T21:05:11.262048","NORAD_CAT_ID":"46043","RA_OF_ASC_NODE":"79.6307","EPHEMERIS_TYPE":"0","PERIAPSIS":"546.219","REV_AT_EPOCH":"10498","ARG_OF_PERICENTER":"64.6299","OBJECT_TYPE":"PAYLOAD","TLE_LINE2":"2 46043  53.0541  79.6307 0001444  64.6299 295.4839 15.06398320104987","ELEMENT_SET_NO":"999","CENTER_NAME":"EARTH","MEAN_MOTION":"15.06398320","DECAY_DATE":null,"FILE":"3502557"},{"RCS_SIZE":"LARGE","PERIOD":"95.592","LAUNCH_DATE":"2020-08-07","TIME_SYSTEM":"UTC","EPHEMERIS_TYPE":"0","RA_OF_ASC_NODE":"79.5535","NORAD_CAT_ID":"46044","EPOCH":"2022-06-25T21:25:03.447264","BSTAR":"0.00008909600000","PERIAPSIS":"546.270","REV_AT_EPOCH":"10499","ARG_OF_PERICENTER":"72.3297","TLE_LINE2":"2 46044  53.0559  79.5535 0001373  72.3297 287.7842 15.06397700104994","OBJECT_TYPE":"PAYLOAD","MEAN_MOTION":"15.06397700","CENTER_NAME":"EARTH","ELEMENT_SET_NO":"999","DECAY_DATE":null,"FILE":"3502557","MEAN_MOTION_DOT":"0.00001046","SITE":"AFETR","INCLINATION":"53.0559","REF_FRAME":"TEME","SEMIMAJOR_AXIS":"6925.356","COUNTRY_CODE":"US","MEAN_ELEMENT_THEORY":"SGP4","TLE_LINE1":"1 46044U 20055T   22176.89240101  .00001046  00000-0  89096-4 0  9990","OBJECT_ID":"2020-055T","OBJECT_NAME":"STARLINK-1584","CLASSIFICATION_TYPE":"U","MEAN_ANOMALY":"287.7842","APOAPSIS":"548.171","MEAN_MOTION_DDOT":"0.0000000000000","ECCENTRICITY":"0.00013730","GP_ID":"206853770"},{"REF_FRAME":"TEME","OBJECT_ID":"2020-055U","COUNTRY_CODE":"US","SEMIMAJOR_AXIS":"6925.352","MEAN_ELEMENT_THEORY":"SGP4","TLE_LINE1":"1 46045U 20055U   22176.90440460  .00000837  00000-0  75059-4 0  9994","MEAN_MOTION_DOT":"0.00000837","INCLINATION":"53.0560","SITE":"AFETR","APOAPSIS":"548.354","MEAN_ANOMALY":"294.3186","ECCENTRICITY":"0.00016420","GP_ID":"206852519","MEAN_MOTION_DDOT":"0.0000000000000","OBJECT_NAME":"STARLINK-1591","CLASSIFICATION_TYPE":"U","EPOCH":"2022-06-25T21:42:20.557440","NORAD_CAT_ID":"46045","BSTAR":"0.00007505900000","RA_OF_ASC_NODE":"79.5076","EPHEMERIS_TYPE":"0","PERIAPSIS":"546.080","ARG_OF_PERICENTER":"65.7974","REV_AT_EPOCH":"10497","PERIOD":"95.592","LAUNCH_DATE":"2020-08-07","TIME_SYSTEM":"UTC","RCS_SIZE":"LARGE","DECAY_DATE":null,"FILE":"3502557","OBJECT_TYPE":"PAYLOAD","TLE_LINE2":"2 46045  53.0560  79.5076 0001642  65.7974 294.3186 15.06398766104970","ELEMENT_SET_NO":"999","MEAN_MOTION":"15.06398766","CENTER_NAME":"EARTH"},{"OBJECT_NAME":"STARLINK-1514","CLASSIFICATION_TYPE":"U","APOAPSIS":"316.930","MEAN_ANOMALY":"84.3566","ECCENTRICITY":"0.00046170","GP_ID":"206852769","MEAN_MOTION_DDOT":"0.0000000000000","MEAN_MOTION_DOT":"0.00158635","INCLINATION":"53.0470","SITE":"AFETR","REF_FRAME":"TEME","OBJECT_ID":"2020-055V","SEMIMAJOR_AXIS":"6691.975","COUNTRY_CODE":"US","TLE_LINE1":"1 46046U 20055V   22176.73017622  .00158635  00000-0  62529-3 0  9993","MEAN_ELEMENT_THEORY":"SGP4","OBJECT_TYPE":"PAYLOAD","TLE_LINE2":"2 46046  53.0470 320.8871 0004617 275.6931  84.3566 15.85883573106610","ELEMENT_SET_NO":"999","MEAN_MOTION":"15.85883573","CENTER_NAME":"EARTH","DECAY_DATE":null,"FILE":"3502557","TIME_SYSTEM":"UTC","LAUNCH_DATE":"2020-08-07","PERIOD":"90.801","RCS_SIZE":"LARGE","NORAD_CAT_ID":"46046","EPOCH":"2022-06-25T17:31:27.225408","BSTAR":"0.00062529000000","EPHEMERIS_TYPE":"0","RA_OF_ASC_NODE":"320.8871","REV_AT_EPOCH":"10661","PERIAPSIS":"310.750","ARG_OF_PERICENTER":"275.6931"},{"SITE":"AFETR","INCLINATION":"53.0543","MEAN_MOTION_DOT":"0.00000639","SEMIMAJOR_AXIS":"6925.367","COUNTRY_CODE":"US","MEAN_ELEMENT_THEORY":"SGP4","TLE_LINE1":"1 46047U 20055W   22176.92376503  .00000639  00000-0  61788-4 0  9998","OBJECT_ID":"2020-055W","REF_FRAME":"TEME","CLASSIFICATION_TYPE":"U","OBJECT_NAME":"STARLINK-1524","MEAN_MOTION_DDOT":"0.0000000000000","ECCENTRICITY":"0.00015890","GP_ID":"206853021","MEAN_ANOMALY":"293.5599","APOAPSIS":"548.332","RCS_SIZE":"LARGE","LAUNCH_DATE":"2020-08-07","TIME_SYSTEM":"UTC","PERIOD":"95.593","PERIAPSIS":"546.132","ARG_OF_PERICENTER":"66.5557","REV_AT_EPOCH":"10513","EPHEMERIS_TYPE":"0","RA_OF_ASC_NODE":"69.4188","EPOCH":"2022-06-25T22:10:13.298592","NORAD_CAT_ID":"46047","BSTAR":"0.00006178800000","MEAN_MOTION":"15.06394000","CENTER_NAME":"EARTH","ELEMENT_SET_NO":"999","TLE_LINE2":"2 46047  53.0543  69.4188 0001589  66.5557 293.5599 15.06394000105136","OBJECT_TYPE":"PAYLOAD","FILE":"3502557","DECAY_DATE":null},{"REF_FRAME":"TEME","COUNTRY_CODE":"US","SEMIMAJOR_AXIS":"6925.353","TLE_LINE1":"1 46048U 20055X   22176.92007446  .00000858  00000-0  76506-4 0  9993","MEAN_ELEMENT_THEORY":"SGP4","OBJECT_ID":"2020-055X","MEAN_MOTION_DOT":"0.00000858","SITE":"AFETR","INCLINATION":"53.0561","MEAN_ANOMALY":"289.1426","APOAPSIS":"548.365","MEAN_MOTION_DDOT":"0.0000000000000","ECCENTRICITY":"0.00016560","GP_ID":"206853271","OBJECT_NAME":"STARLINK-1527","CLASSIFICATION_TYPE":"U","RA_OF_ASC_NODE":"69.4513","EPHEMERIS_TYPE":"0","EPOCH":"2022-06-25T22:04:54.433344","NORAD_CAT_ID":"46048","BSTAR":"0.00007650600000","ARG_OF_PERICENTER":"70.9742","PERIAPSIS":"546.072","REV_AT_EPOCH":"10511","RCS_SIZE":"LARGE","LAUNCH_DATE":"2020-08-07","PERIOD":"95.592","TIME_SYSTEM":"UTC","DECAY_DATE":null,"FILE":"3502557","TLE_LINE2":"2 46048  53.0561  69.4513 0001656  70.9742 289.1426 15.06398394105117","OBJECT_TYPE":"PAYLOAD","MEAN_MOTION":"15.06398394","CENTER_NAME":"EARTH","ELEMENT_SET_NO":"999"},{"FILE":"3502557","DECAY_DATE":null,"MEAN_MOTION":"15.06393514","CENTER_NAME":"EARTH","ELEMENT_SET_NO":"999","TLE_LINE2":"2 46049  53.0557  69.4622 0001659  61.1150 299.0005 15.06393514105147","OBJECT_TYPE":"PAYLOAD","REV_AT_EPOCH":"10514","PERIAPSIS":"546.085","ARG_OF_PERICENTER":"61.1150","EPHEMERIS_TYPE":"0","RA_OF_ASC_NODE":"69.4622","NORAD_CAT_ID":"46049","EPOCH":"2022-06-25T21:59:36.445056","BSTAR":"-0.00005527300000","RCS_SIZE":"LARGE","TIME_SYSTEM":"UTC","LAUNCH_DATE":"2020-08-07","PERIOD":"95.593","MEAN_MOTION_DDOT":"0.0000000000000","ECCENTRICITY":"0.00016590","GP_ID":"206852020","MEAN_ANOMALY":"299.0005","APOAPSIS":"548.382","CLASSIFICATION_TYPE":"U","OBJECT_NAME":"STARLINK-1530","SEMIMAJOR_AXIS":"6925.368","COUNTRY_CODE":"US","TLE_LINE1":"1 46049U 20055Y   22176.91639404 -.00001105  00000-0 -55273-4 0  9994","MEAN_ELEMENT_THEORY":"SGP4","OBJECT_ID":"2020-055Y","REF_FRAME":"TEME","SITE":"AFETR","INCLINATION":"53.0557","MEAN_MOTION_DOT":"-0.00001105"},{"EPHEMERIS_TYPE":"0","RA_OF_ASC_NODE":"69.5842","BSTAR":"0.00010098000000","EPOCH":"2022-06-25T21:17:08.176416","NORAD_CAT_ID":"46051","PERIAPSIS":"545.965","ARG_OF_PERICENTER":"61.0912","REV_AT_EPOCH":"10514","RCS_SIZE":"LARGE","LAUNCH_DATE":"2020-08-07","PERIOD":"95.592","TIME_SYSTEM":"UTC","DECAY_DATE":null,"FILE":"3502557","TLE_LINE2":"2 46051  53.0556  69.5842 0001822  61.0912 299.0259 15.06395780105149","OBJECT_TYPE":"PAYLOAD","CENTER_NAME":"EARTH","MEAN_MOTION":"15.06395780","ELEMENT_SET_NO":"999","REF_FRAME":"TEME","MEAN_ELEMENT_THEORY":"SGP4","TLE_LINE1":"1 46051U 20055AA  22176.88690019  .00001223  00000-0  10098-3 0  9996","SEMIMAJOR_AXIS":"6925.361","COUNTRY_CODE":"US","OBJECT_ID":"2020-055AA","MEAN_MOTION_DOT":"0.00001223","SITE":"AFETR","INCLINATION":"53.0556","MEAN_ANOMALY":"299.0259","APOAPSIS":"548.488","MEAN_MOTION_DDOT":"0.0000000000000","GP_ID":"206852270","ECCENTRICITY":"0.00018220","OBJECT_NAME":"STARLINK-1540","CLASSIFICATION_TYPE":"U"},{"GP_ID":"206853521","ECCENTRICITY":"0.00018150","MEAN_MOTION_DDOT":"0.0000000000000","APOAPSIS":"548.616","MEAN_ANOMALY":"278.2737","CLASSIFICATION_TYPE":"U","OBJECT_NAME":"STARLINK-1541","OBJECT_ID":"2020-055AB","MEAN_ELEMENT_THEORY":"SGP4","TLE_LINE1":"1 46052U 20055AB  22176.87217515  .00008547  00000-0  59275-3 0  9998","COUNTRY_CODE":"US","SEMIMAJOR_AXIS":"6925.494","REF_FRAME":"TEME","INCLINATION":"53.0566","SITE":"AFETR","MEAN_MOTION_DOT":"0.00008547","FILE":"3502557","DECAY_DATE":null,"ELEMENT_SET_NO":"999","CENTER_NAME":"EARTH","MEAN_MOTION":"15.06352405","OBJECT_TYPE":"PAYLOAD","TLE_LINE2":"2 46052  53.0566  69.6401 0001815  81.8458 278.2737 15.06352405105103","PERIAPSIS":"546.102","REV_AT_EPOCH":"10510","ARG_OF_PERICENTER":"81.8458","BSTAR":"0.00059275000000","EPOCH":"2022-06-25T20:55:55.932960","NORAD_CAT_ID":"46052","EPHEMERIS_TYPE":"0","RA_OF_ASC_NODE":"69.6401","PERIOD":"95.595","LAUNCH_DATE":"2020-08-07","TIME_SYSTEM":"UTC","RCS_SIZE":"LARGE"}];
